[{"OBJECT_NAME":"DUPLEX","OBJECT_ID":"1998-067XS","EPOCH":"2026-04-02T08:01:13.189152","MEAN_MOTION":15.5780936,"ECCENTRICITY":0.00031394,"INCLINATION":51.6289,"RA_OF_ASC_NODE":311.0495,"ARG_OF_PERICENTER":222.9093,"MEAN_ANOMALY":137.1654,"EPHEMERIS_TYPE":0,"CLASSIFICATION_TYPE":"U","NORAD_CAT_ID":66906,"ELEMENT_SET_NO":999,"REV_AT_EPOCH":1881,"BSTAR":0.00050879791,"MEAN_MOTION_DOT":0.00038286,"MEAN_MOTION_DDOT":0},{"OBJECT_NAME":"ISS OBJECT XT","OBJECT_ID":"1998-067XT","EPOCH":"2026-04-02T20:11:42.287424","MEAN_MOTION":15.7906979,"ECCENTRICITY":0.0006925,"INCLINATION":51.6224,"RA_OF_ASC_NODE":301.6406,"ARG_OF_PERICENTER":238.4515,"MEAN_ANOMALY":121.581,"EPHEMERIS_TYPE":0,"CLASSIFICATION_TYPE":"U","NORAD_CAT_ID":66907,"ELEMENT_SET_NO":999,"REV_AT_EPOCH":1898,"BSTAR":0.0020759,"MEAN_MOTION_DOT":0.00395588,"MEAN_MOTION_DDOT":0},{"OBJECT_NAME":"ISS OBJECT XU","OBJECT_ID":"1998-067XU","EPOCH":"2026-04-02T14:00:29.185632","MEAN_MOTION":15.79162212,"ECCENTRICITY":0.00070805,"INCLINATION":51.6227,"RA_OF_ASC_NODE":302.9152,"ARG_OF_PERICENTER":236.5684,"MEAN_ANOMALY":123.464,"EPHEMERIS_TYPE":0,"CLASSIFICATION_TYPE":"U","NORAD_CAT_ID":66908,"ELEMENT_SET_NO":999,"REV_AT_EPOCH":1894,"BSTAR":0.0016661764,"MEAN_MOTION_DOT":0.00315777,"MEAN_MOTION_DDOT":0},{"OBJECT_NAME":"SILVERSAT","OBJECT_ID":"1998-067XV","EPOCH":"2026-04-02T13:59:38.023008","MEAN_MOTION":15.85656241,"ECCENTRICITY":0.00084842,"INCLINATION":51.6187,"RA_OF_ASC_NODE":301.3924,"ARG_OF_PERICENTER":244.3474,"MEAN_ANOMALY":115.6654,"EPHEMERIS_TYPE":0,"CLASSIFICATION_TYPE":"U","NORAD_CAT_ID":66909,"ELEMENT_SET_NO":999,"REV_AT_EPOCH":1896,"BSTAR":0.0018698813,"MEAN_MOTION_DOT":0.00490335,"MEAN_MOTION_DDOT":0},{"OBJECT_NAME":"ISS OBJECT XW","OBJECT_ID":"1998-067XW","EPOCH":"2026-04-02T20:29:28.075488","MEAN_MOTION":15.77220477,"ECCENTRICITY":0.0007256,"INCLINATION":51.6203,"RA_OF_ASC_NODE":301.715,"ARG_OF_PERICENTER":233.7499,"MEAN_ANOMALY":126.2831,"EPHEMERIS_TYPE":0,"CLASSIFICATION_TYPE":"U","NORAD_CAT_ID":66910,"ELEMENT_SET_NO":999,"REV_AT_EPOCH":1898,"BSTAR":0.0019101,"MEAN_MOTION_DOT":0.0033257,"MEAN_MOTION_DDOT":0},{"OBJECT_NAME":"ISS OBJECT XX","OBJECT_ID":"1998-067XX","EPOCH":"2026-04-02T13:33:06.247296","MEAN_MOTION":15.94599332,"ECCENTRICITY":0.00106145,"INCLINATION":51.6164,"RA_OF_ASC_NODE":299.7246,"ARG_OF_PERICENTER":249.4592,"MEAN_ANOMALY":110.5277,"EPHEMERIS_TYPE":0,"CLASSIFICATION_TYPE":"U","NORAD_CAT_ID":66911,"ELEMENT_SET_NO":999,"REV_AT_EPOCH":1897,"BSTAR":0.0020072039,"MEAN_MOTION_DOT":0.00782872,"MEAN_MOTION_DDOT":0.00027242694},{"OBJECT_NAME":"ISS OBJECT XY","OBJECT_ID":"1998-067XY","EPOCH":"2026-04-02T13:46:44.196960","MEAN_MOTION":15.68819733,"ECCENTRICITY":0.00047395,"INCLINATION":51.6258,"RA_OF_ASC_NODE":305.8859,"ARG_OF_PERICENTER":230.4496,"MEAN_ANOMALY":129.6082,"EPHEMERIS_TYPE":0,"CLASSIFICATION_TYPE":"U","NORAD_CAT_ID":66912,"ELEMENT_SET_NO":999,"REV_AT_EPOCH":1889,"BSTAR":0.0011569692,"MEAN_MOTION_DOT":0.00137053,"MEAN_MOTION_DDOT":0},{"OBJECT_NAME":"KNACKSAT-2","OBJECT_ID":"1998-067XZ","EPOCH":"2026-04-02T00:35:52.009728","MEAN_MOTION":15.53816312,"ECCENTRICITY":0.00103577,"INCLINATION":51.6312,"RA_OF_ASC_NODE":315.735,"ARG_OF_PERICENTER":271.4198,"MEAN_ANOMALY":88.5606,"EPHEMERIS_TYPE":0,"CLASSIFICATION_TYPE":"U","NORAD_CAT_ID":67683,"ELEMENT_SET_NO":999,"REV_AT_EPOCH":841,"BSTAR":0.00070546081,"MEAN_MOTION_DOT":0.00046055,"MEAN_MOTION_DDOT":0},{"OBJECT_NAME":"CORAL","OBJECT_ID":"1998-067YA","EPOCH":"2026-04-02T07:55:13.707264","MEAN_MOTION":15.58508636,"ECCENTRICITY":0.00132941,"INCLINATION":51.6292,"RA_OF_ASC_NODE":313.2725,"ARG_OF_PERICENTER":262.6844,"MEAN_ANOMALY":97.2637,"EPHEMERIS_TYPE":0,"CLASSIFICATION_TYPE":"U","NORAD_CAT_ID":67684,"ELEMENT_SET_NO":999,"REV_AT_EPOCH":847,"BSTAR":0.0015846798,"MEAN_MOTION_DOT":0.00125323,"MEAN_MOTION_DDOT":0},{"OBJECT_NAME":"GXIBA-1","OBJECT_ID":"1998-067YB","EPOCH":"2026-04-02T08:02:09.004416","MEAN_MOTION":15.54444471,"ECCENTRICITY":0.00122891,"INCLINATION":51.6311,"RA_OF_ASC_NODE":314.0552,"ARG_OF_PERICENTER":269.6614,"MEAN_ANOMALY":90.2969,"EPHEMERIS_TYPE":0,"CLASSIFICATION_TYPE":"U","NORAD_CAT_ID":67685,"ELEMENT_SET_NO":999,"REV_AT_EPOCH":846,"BSTAR":0.00094793493,"MEAN_MOTION_DOT":0.00063698,"MEAN_MOTION_DDOT":0},{"OBJECT_NAME":"UITMSAT-2","OBJECT_ID":"1998-067YC","EPOCH":"2026-04-02T15:19:28.045056","MEAN_MOTION":15.55557558,"ECCENTRICITY":0.00093777,"INCLINATION":51.6305,"RA_OF_ASC_NODE":312.3353,"ARG_OF_PERICENTER":244.7057,"MEAN_ANOMALY":115.2963,"EPHEMERIS_TYPE":0,"CLASSIFICATION_TYPE":"U","NORAD_CAT_ID":67686,"ELEMENT_SET_NO":999,"REV_AT_EPOCH":851,"BSTAR":0.00099291359,"MEAN_MOTION_DOT":0.00069503,"MEAN_MOTION_DDOT":0},{"OBJECT_NAME":"HMU-SAT2","OBJECT_ID":"1998-067YD","EPOCH":"2026-04-02T00:27:21.531744","MEAN_MOTION":15.54142799,"ECCENTRICITY":0.00089072,"INCLINATION":51.6316,"RA_OF_ASC_NODE":315.6984,"ARG_OF_PERICENTER":244.0786,"MEAN_ANOMALY":115.9287,"EPHEMERIS_TYPE":0,"CLASSIFICATION_TYPE":"U","NORAD_CAT_ID":67687,"ELEMENT_SET_NO":999,"REV_AT_EPOCH":833,"BSTAR":0.00072718698,"MEAN_MOTION_DOT":0.00048045,"MEAN_MOTION_DDOT":0},{"OBJECT_NAME":"LEOPARD","OBJECT_ID":"1998-067YE","EPOCH":"2026-04-02T07:48:25.086240","MEAN_MOTION":15.55023606,"ECCENTRICITY":0.00090674,"INCLINATION":51.6308,"RA_OF_ASC_NODE":313.9945,"ARG_OF_PERICENTER":243.2644,"MEAN_ANOMALY":116.7419,"EPHEMERIS_TYPE":0,"CLASSIFICATION_TYPE":"U","NORAD_CAT_ID":67688,"ELEMENT_SET_NO":999,"REV_AT_EPOCH":838,"BSTAR":0.0010507024,"MEAN_MOTION_DOT":0.00072153,"MEAN_MOTION_DDOT":0},{"OBJECT_NAME":"CREW DRAGON 12","OBJECT_ID":"2026-031A","EPOCH":"2026-04-02T20:14:17.913696","MEAN_MOTION":15.48729122,"ECCENTRICITY":0.0006236,"INCLINATION":51.6328,"RA_OF_ASC_NODE":312.9475,"ARG_OF_PERICENTER":264.7845,"MEAN_ANOMALY":95.2432,"EPHEMERIS_TYPE":0,"CLASSIFICATION_TYPE":"U","NORAD_CAT_ID":67796,"ELEMENT_SET_NO":999,"REV_AT_EPOCH":56004,"BSTAR":0.00022447,"MEAN_MOTION_DOT":0.00011825,"MEAN_MOTION_DDOT":0},{"OBJECT_NAME":"PROGRESS-MS 33","OBJECT_ID":"2026-058A","EPOCH":"2026-04-02T20:14:17.913696","MEAN_MOTION":15.48729122,"ECCENTRICITY":0.0006236,"INCLINATION":51.6328,"RA_OF_ASC_NODE":312.9475,"ARG_OF_PERICENTER":264.7845,"MEAN_ANOMALY":95.2432,"EPHEMERIS_TYPE":0,"CLASSIFICATION_TYPE":"U","NORAD_CAT_ID":68319,"ELEMENT_SET_NO":999,"REV_AT_EPOCH":155,"BSTAR":0.00022447,"MEAN_MOTION_DOT":0.00011825,"MEAN_MOTION_DDOT":0}]
